NORAD_CAT_ID,OBJECT_NAME,OBJECT_TYPE,EPOCH,MEAN_MOTION,ECCENTRICITY,INCLINATION,RA_OF_ASC_NODE,ARG_OF_PERICENTER,MEAN_ANOMALY,BSTAR,MEAN_MOTION_DOT,MEAN_MOTION_DDOT,TLE_LINE0,TLE_LINE1,TLE_LINE2,SEMIMAJOR_AXIS,PERIOD,APOGEE,PERIGEE,DECAYED
56477.0,STARLINK-5534,PAYLOAD,2024-04-17 08:09:03,14.98322433,0.0002624,70.0004,67.5205,263.6073,96.4787,0.00044271,5.192e-05,0.0,0 STARLINK-5534,1 56477U 23064AF  24108.33962920  .00005192  00000-0  44271-3 0  9991,2 56477  70.0004  67.5205 0002624 263.6073  96.4787 14.98322433 52184,6950.216,96.107,573.905,570.258,0.0
56477.0,STARLINK-5534,PAYLOAD,2024-04-18 03:22:42,14.98322164,0.000286,70.0008,65.5008,241.4796,118.6075,-0.00015579,-1.951e-05,0.0,0 STARLINK-5534,1 56477U 23064AF  24109.14076426 -.00001951  00000-0 -15579-3 0  9998,2 56477  70.0008  65.5008 0002860 241.4796 118.6075 14.98322164 52666,6950.217,96.108,574.07,570.094,0.0
56477.0,STARLINK-5534,PAYLOAD,2024-04-18 06:34:58,14.98317391,0.0002831,70.0003,65.163,256.6267,103.4577,-0.00019383,-2.404e-05,0.0,0 STARLINK-5534,1 56477U 23064AF  24109.27429011 -.00002404  00000-0 -19383-3 0  9995,2 56477  70.0003  65.1630 0002831 256.6267 103.4577 14.98317391 52684,6950.232,96.108,574.064,570.129,0.0
56477.0,STARLINK-5534,PAYLOAD,2024-04-18 22:36:18,14.98326775,0.0002979,69.9999,63.4803,266.0675,94.0143,-4.1953e-05,-5.93e-06,0.0,0 STARLINK-5534,1 56477U 23064AF  24109.94188260 -.00000593  00000-0 -41953-4 0  9993,2 56477  69.9999  63.4803 0002979 266.0675  94.0143 14.98326775 52421,6950.203,96.107,574.138,569.997,0.0
56477.0,STARLINK-5534,PAYLOAD,2024-04-19 05:00:50,14.98338273,0.0003018,69.9997,62.8068,262.7598,97.3218,5.2279e-06,-3.1e-07,0.0,0 STARLINK-5534,1 56477U 23064AF  24110.20891401 -.00000031  00000-0  52279-5 0  9992,2 56477  69.9997  62.8068 0003018 262.7598  97.3218 14.98338273 52826,6950.167,96.106,574.13,569.935,0.0
56477.0,STARLINK-5534,PAYLOAD,2024-04-19 06:36:57,14.98341351,0.0002947,70.0,62.6391,259.6784,100.4042,2.567e-05,2.13e-06,0.0,0 STARLINK-5534,1 56477U 23064AF  24110.27567119  .00000213  00000-0  25670-4 0  9990,2 56477  70.0000  62.6391 0002947 259.6784 100.4042 14.98341351 52476,6950.158,96.106,574.071,569.975,0.0
56477.0,STARLINK-5534,PAYLOAD,2024-04-19 22:38:18,14.98331162,0.0002812,70.0007,60.9546,258.685,101.3994,0.00024481,2.829e-05,0.0,0 STARLINK-5534,1 56477U 23064AF  24110.94327021  .00002829  00000-0  24481-3 0  9993,2 56477  70.0007  60.9546 0002812 258.6850 101.3994 14.98331162 52576,6950.189,96.107,574.009,570.1,0.0
56477.0,STARLINK-5534,PAYLOAD,2024-04-20 05:02:49,14.98340984,0.0002209,70.002,60.2833,253.9354,106.1562,0.00037293,4.361e-05,0.0,0 STARLINK-5534,1 56477U 23064AF  24111.21029967  .00004361  00000-0  37293-3 0  9990,2 56477  70.0020  60.2833 0002209 253.9354 106.1562 14.98340984 52970,6950.159,96.106,573.559,570.489,0.0
56477.0,STARLINK-5534,PAYLOAD,2024-04-20 06:38:57,14.98345119,0.0002559,70.0015,60.1153,243.2914,116.7983,0.00038722,4.532e-05,0.0,0 STARLINK-5534,1 56477U 23064AF  24111.27705574  .00004532  00000-0  38722-3 0  9999,2 56477  70.0015  60.1153 0002559 243.2914 116.7983 14.98345119 52621,6950.146,96.106,573.79,570.233,0.0
56477.0,STARLINK-5534,PAYLOAD,2024-04-20 21:04:12,14.98323132,0.0002634,70.0013,58.5998,263.9329,96.153,-0.00017034,-2.124e-05,0.0,0 STARLINK-5534,1 56477U 23064AF  24111.87792696 -.00002124  00000-0 -17034-3 0  9996,2 56477  70.0013  58.5998 0002634 263.9329  96.1530 14.98323132 53070,6950.214,96.107,573.91,570.248,0.0
56477.0,STARLINK-5534,PAYLOAD,2024-04-21 01:52:38,14.98309645,0.0002777,70.0008,58.0957,266.3045,93.7797,-0.00032946,-4.02e-05,0.0,0 STARLINK-5534,1 56477U 23064AF  24112.07822051 -.00004020  00000-0 -32946-3 0  9994,2 56477  70.0008  58.0957 0002777 266.3045  93.7797 14.98309645 53109,6950.256,96.108,574.051,570.191,0.0
56477.0,STARLINK-5534,PAYLOAD,2024-04-21 21:06:13,14.98329879,0.0002419,70.0017,56.0763,263.3333,96.7551,-0.00017095,-2.132e-05,0.0,0 STARLINK-5534,1 56477U 23064AF  24112.87932651 -.00002132  00000-0 -17095-3 0  9990,2 56477  70.0017  56.0763 0002419 263.3333  96.7551 14.98329879 53227,6950.193,96.107,573.74,570.377,0.0
56477.0,STARLINK-5534,PAYLOAD,2024-04-21 22:42:21,14.98330931,0.0001888,70.0049,55.9083,239.8986,120.1986,-7.5919e-05,-9.98e-06,0.0,0 STARLINK-5534,1 56477U 23064AF  24112.94608280 -.00000998  00000-0 -75919-4 0  9994,2 56477  70.0049  55.9083 0001888 239.8986 120.1986 14.98330931 52871,6950.19,96.107,573.367,570.743,0.0
56477.0,STARLINK-5534,PAYLOAD,2024-04-22 05:06:53,14.98337497,0.0001663,70.0037,55.2348,249.8482,110.2498,-5.2162e-06,-1.55e-06,0.0,0 STARLINK-5534,1 56477U 23064AF  24113.21311727 -.00000155  00000-0 -52162-5 0  9993,2 56477  70.0037  55.2348 0001663 249.8482 110.2498 14.98337497 53275,6950.17,96.107,573.191,570.879,0.0
56477.0,STARLINK-5534,PAYLOAD,2024-04-22 19:32:06,14.98308207,0.0001437,70.0052,53.7221,248.0208,112.0798,0.00033631,3.92e-05,0.0,0 STARLINK-5534,1 56477U 23064AF  24113.81396544  .00003920  00000-0  33631-3 0  9998,2 56477  70.0052  53.7221 0001437 248.0208 112.0798 14.98308207 53361,6950.26,96.108,573.124,571.127,0.0
56477.0,STARLINK-5534,PAYLOAD,2024-04-22 22:44:23,14.98307307,0.0002118,70.0028,53.3831,239.303,120.7921,0.00024067,2.778e-05,0.0,0 STARLINK-5534,1 56477U 23064AF  24113.94748886  .00002778  00000-0  24067-3 0  9995,2 56477  70.0028  53.3831 0002118 239.3030 120.7921 14.98307307 53027,6950.263,96.108,573.6,570.656,0.0
56477.0,STARLINK-5534,PAYLOAD,2024-04-23 05:08:55,14.98308604,0.0002314,70.0028,52.7106,253.3438,106.7467,0.00024601,2.842e-05,0.0,0 STARLINK-5534,1 56477U 23064AF  24114.21453137  .00002842  00000-0  24601-3 0  9994,2 56477  70.0028  52.7106 0002314 253.3438 106.7467 14.98308604 53065,6950.259,96.108,573.732,570.516,0.0
56477.0,STARLINK-5534,PAYLOAD,2024-04-23 21:10:16,14.98328777,0.0002011,70.0028,51.0259,251.6812,108.4129,-0.00013566,-1.711e-05,0.0,0 STARLINK-5534,1 56477U 23064AF  24114.88213342 -.00001711  00000-0 -13566-3 0  9993,2 56477  70.0028  51.0259 0002011 251.6812 108.4129 14.98328777 53525,6950.197,96.107,573.459,570.664,0.0
56477.0,STARLINK-5534,PAYLOAD,2024-04-23 22:46:24,14.98324506,0.0002403,70.0028,50.8589,266.2547,93.8337,-0.00016322,-2.039e-05,0.0,0 STARLINK-5534,1 56477U 23064AF  24114.94889711 -.00002039  00000-0 -16322-3 0  9996,2 56477  70.0028  50.8589 0002403 266.2547  93.8337 14.98324506 53175,6950.21,96.107,573.745,570.405,0.0
56477.0,STARLINK-5534,PAYLOAD,2024-04-24 05:10:56,14.98326614,0.0002591,70.0015,50.1829,276.4071,83.6793,-0.00016678,-2.082e-05,0.0,0 STARLINK-5534,1 56477U 23064AF  24115.21593722 -.00002082  00000-0 -16678-3 0  9993,2 56477  70.0015  50.1829 0002591 276.4071  83.6793 14.98326614 53573,6950.203,96.107,573.869,570.268,0.0
56477.0,STARLINK-5534,PAYLOAD,2024-04-24 21:12:16,14.98334473,0.0002587,70.003,48.5032,261.9288,98.1578,0.00015295,1.733e-05,0.0,0 STARLINK-5534,1 56477U 23064AF  24115.88352254  .00001733  00000-0  15295-3 0  9993,2 56477  70.0030  48.5032 0002587 261.9288  98.1578 14.98334473 53676,6950.179,96.107,573.842,570.246,0.0
56477.0,STARLINK-5534,PAYLOAD,2024-04-24 22:48:24,14.98335389,0.0002526,70.0033,48.335,261.6477,98.4396,0.00016651,1.895e-05,0.0,0 STARLINK-5534,1 56477U 23064AF  24115.95028152  .00001895  00000-0  16651-3 0  9994,2 56477  70.0033  48.3350 0002526 261.6477  98.4396 14.98335389 53320,6950.176,96.107,573.797,570.286,0.0
56477.0,STARLINK-5534,PAYLOAD,2024-04-25 05:12:55,14.98350345,0.0002394,70.0026,47.6616,248.6921,111.3983,0.0002949,3.429e-05,0.0,0 STARLINK-5534,1 56477U 23064AF  24116.21730615  .00003429  00000-0  29490-3 0  9998,2 56477  70.0026  47.6616 0002394 248.6921 111.3983 14.98350345 53721,6950.13,96.106,573.659,570.331,0.0
56477.0,STARLINK-5534,PAYLOAD,2024-04-25 21:14:17,14.983263,0.000255,70.0056,45.9861,250.1548,109.9337,0.00018413,2.105e-05,0.0,0 STARLINK-5534,1 56477U 23064AF  24116.88491995  .00002105  00000-0  18413-3 0  9999,2 56477  70.0056  45.9861 0002550 250.1548 109.9337 14.98326300 53825,6950.204,96.107,573.842,570.297,0.0
56477.0,STARLINK-5534,PAYLOAD,2024-04-25 22:50:25,14.98325856,0.0002681,70.0057,45.8177,244.7584,115.3298,0.00017138,1.952e-05,0.0,0 STARLINK-5534,1 56477U 23064AF  24116.95168017  .00001952  00000-0  17138-3 0  9995,2 56477  70.0057  45.8177 0002681 244.7584 115.3298 14.98325856 53472,6950.206,96.107,573.934,570.207,0.0
56477.0,STARLINK-5534,PAYLOAD,2024-04-26 05:14:57,14.98328276,0.0002781,70.0012,45.1328,266.4221,93.662,0.00014321,1.616e-05,0.0,0 STARLINK-5534,1 56477U 23064AF  24117.21872078  .00001616  00000-0  14321-3 0  9992,2 56477  70.0012  45.1328 0002781 266.4221  93.6620 14.98328276 53515,6950.198,96.107,573.996,570.13,0.0
56477.0,STARLINK-5534,PAYLOAD,2024-04-26 19:40:09,14.98344061,0.000263,70.002,43.6192,265.5199,94.5659,-0.00016363,-2.045e-05,0.0,0 STARLINK-5534,1 56477U 23064AF  24117.81955714 -.00002045  00000-0 -16363-3 0  9994,2 56477  70.0020  43.6192 0002630 265.5199  94.5659 14.98344061 53605,6950.149,96.106,573.842,570.187,0.0
56477.0,STARLINK-5534,PAYLOAD,2024-04-27 03:40:49,14.98347812,0.0002656,70.0017,42.778,264.4951,95.5905,-0.00012094,-1.536e-05,0.0,0 STARLINK-5534,1 56477U 23064AF  24118.15335025 -.00001536  00000-0 -12094-3 0  9990,2 56477  70.0017  42.7780 0002656 264.4951  95.5905 14.98347812 54014,6950.138,96.106,573.849,570.157,0.0
56477.0,STARLINK-5534,PAYLOAD,2024-04-27 11:41:30,14.98337741,0.0001788,70.0049,41.9349,293.6121,66.485,-0.00024907,-3.064e-05,0.0,0 STARLINK-5534,1 56477U 23064AF  24118.48716077 -.00003064  00000-0 -24907-3 0  9990,2 56477  70.0049  41.9349 0001788 293.6121  66.4850 14.98337741 54060,6950.169,96.107,573.277,570.791,0.0
56477.0,STARLINK-5534,PAYLOAD,2024-04-27 21:18:19,14.98321992,0.0002431,70.002,40.9269,268.9634,91.1246,-0.00010396,-1.333e-05,0.0,0 STARLINK-5534,1 56477U 23064AF  24118.88772476 -.00001333  00000-0 -10396-3 0  9993,2 56477  70.0020  40.9269 0002431 268.9634  91.1246 14.98321992 54121,6950.218,96.108,573.772,570.393,0.0
